OBJECT_NAME,OBJECT_ID,EPOCH,MEAN_MOTION,ECCENTRICITY,INCLINATION,RA_OF_ASC_NODE,ARG_OF_PERICENTER,MEAN_ANOMALY,EPHEMERIS_TYPE,CLASSIFICATION_TYPE,NORAD_CAT_ID,ELEMENT_SET_NO,REV_AT_EPOCH,BSTAR,MEAN_MOTION_DOT,MEAN_MOTION_DDOT
BEIDOU-2 IGSO-5 (C10),2011-073A,2026-06-14T18:40:23.710080,1.00273176,.0113882,47.6828,271.5760,221.6228,141.7208,0,U,37948,999,5311,0,-.164E-5,0
LUCH 5A (SDCM/PRN 140),2011-074B,2026-06-14T12:44:38.779296,1.00269857,.000219,8.7472,73.8464,25.7542,161.3460,0,U,37951,999,5302,0,-.5E-6,0
BEIDOU-2 G5 (C05),2012-008A,2026-06-14T21:35:38.858784,1.00271220,.0009147,3.5669,69.7089,272.9219,303.1266,0,U,38091,999,5234,0,.6E-6,0
BEIDOU-2 M3 (C11),2012-018A,2026-06-13T23:12:21.861216,1.86229866,.0020094,55.7612,304.9843,274.1342,85.6161,0,U,38250,999,9588,0,-.71E-6,0
BEIDOU-2 M4 (C12),2012-018B,2026-06-13T08:41:38.889888,1.86229521,.00112871,55.6617,304.2191,276.0779,83.7740,0,U,38251,999,9587,0,-.7E-6,0
SES-5 (EGNOS/PRN 136),2012-036A,2026-06-14T18:17:38.889024,1.00269203,.000164,0.0496,312.8635,140.9564,88.6285,0,U,38652,999,4443,0,.39E-6,0
BEIDOU-2 M6 (C14),2012-050B,2026-06-13T01:43:42.616992,1.86230840,.0013772,56.5408,63.0305,356.7295,3.2873,0,U,38775,999,9323,0,-.56E-6,0
GSAT-10 (GAGAN/PRN 128),2012-051B,2026-06-14T20:41:07.396224,1.00270051,.0007758,0.0866,263.2126,184.0265,209.2120,0,U,38779,999,5007,0,-.159E-5,0
GPS BIIF-3  (PRN 24),2012-053A,2026-06-14T07:47:42.929088,2.00567367,.0180145,53.5854,143.7166,65.7124,296.1325,0,U,38833,999,9938,0,.53E-6,0
GSAT0103 (GALILEO-FM3),2012-055A,2026-06-14T13:01:25.557024,1.70473336,.0004917,55.8050,101.6182,305.1909,54.7190,0,U,38857,999,8496,0,-.11E-6,0
BEIDOU-2 G6 (C02),2012-059A,2026-06-14T20:20:54.405024,1.00272440,.0009618,4.4143,73.5459,324.3341,254.5209,0,U,38953,999,4988,0,-.174E-5,0
LUCH 5B (SDCM/PRN 125),2012-061A,2026-06-12T23:23:12.366816,1.00272671,.00023465,10.4721,49.9205,149.8007,36.0976,0,U,38977,999,4956,0,-.133E-5,0
COSMOS 2485 (747),2013-019A,2026-06-13T03:44:30.662016,2.13103375,.00232424,65.4173,73.7400,234.2149,125.5877,0,U,39155,999,10219,0,-.31E-6,0
GPS BIIF-4  (PRN 27),2013-023A,2026-06-14T04:36:01.698912,2.00563390,.0141547,54.5064,269.0957,51.0304,310.2477,0,U,39166,999,9582,0,-.18E-6,0
IRNSS-1A,2013-034A,2026-06-09T14:20:49.169184,1.00272948,.00174117,35.7049,63.9797,184.2474,279.8453,0,U,39199,999,4729,0,.7E-6,0
GPS BIIF-5  (PRN 30),2014-008A,2026-06-14T04:38:21.908832,2.00559538,.00842367,53.6541,149.4417,231.2354,127.9952,0,U,39533,999,8962,0,.63E-6,0
ASTRA 5B (EGNOS/PRN 123),2014-011B,2026-06-14T20:03:44.114400,1.00272384,.0001755,0.0468,335.6540,97.2903,154.6129,0,U,39617,999,4464,0,.143E-5,0
COSMOS 2492 (754),2014-012A,2026-06-14T01:16:45.888096,2.13103207,.00104533,65.2995,314.0428,325.1473,34.7685,0,U,39620,999,9517,0,-.53E-6,0
IRNSS-1B,2014-017A,2026-06-14T18:30:17.177760,1.00275602,.0023063,28.9259,240.4448,189.5629,165.7473,0,U,39635,999,4476,0,.132E-5,0
LUCH 5V (SDCM/PRN 141),2014-023A,2026-06-14T18:41:01.149792,1.00275422,.0001838,5.1252,69.7653,45.6225,162.6194,0,U,39727,999,4433,0,-.267E-5,0
GPS BIIF-6  (PRN 06),2014-026A,2026-06-14T11:15:02.534112,2.00561101,.0038186,56.4997,331.6232,326.6153,33.1392,0,U,39741,999,8848,0,-.77E-6,0
COSMOS 2500 (755),2014-032A,2026-06-13T06:49:49.213632,2.13106047,.0007281,65.2352,313.8168,184.1744,175.8059,0,U,40001,999,9337,0,-.51E-6,0
GPS BIIF-7  (PRN 09),2014-045A,2026-06-14T01:29:09.727296,2.00558116,.00331864,55.3513,88.5895,118.2824,242.0384,0,U,40105,999,8601,0,-.3E-6,0
GSAT0201 (GALILEO 5),2014-050A,2026-06-13T15:27:24.646464,1.85519952,.16739532,48.8793,273.5817,179.2575,181.0766,0,U,40128,999,7825,0,-.43E-6,0
GSAT0202 (GALILEO 6),2014-050B,2026-06-13T08:39:16.158816,1.85520497,.16752446,48.8965,272.6788,179.9701,180.0913,0,U,40129,999,8041,0,-.42E-6,0
IRNSS-1C,2014-061A,2026-06-14T20:20:39.429312,1.00269703,.0022727,6.5121,88.9752,2.1523,200.1682,0,U,40269,999,4266,0,-.16E-5,0
GPS BIIF-8  (PRN 03),2014-068A,2026-06-12T22:26:25.265760,2.00575830,.00669623,56.9847,31.1185,70.4280,290.3526,0,U,40294,999,8512,0,-.61E-6,0
COSMOS 2501 (702K),2014-075A,2026-06-13T01:51:27.271008,2.13101424,.00225676,63.6161,190.5143,212.1681,147.7675,0,U,40315,999,8976,0,.117E-5,0
GPS BIIF-9  (PRN 26),2015-013A,2026-06-13T13:44:01.625856,2.00551527,.010943,53.1681,204.3272,40.1118,320.7798,0,U,40534,999,8175,0,.93E-6,0
GSAT0203 (GALILEO 7),2015-017A,2026-06-11T08:19:41.682144,1.70476009,.00020918,56.7895,341.7548,278.1581,81.8319,0,U,40544,999,6910,0,-.66E-6,0
GSAT0204 (GALILEO 8),2015-017B,2026-06-14T12:51:23.627232,1.70475571,.000191,56.7953,341.6863,248.0709,111.9109,0,U,40545,999,3220,0,-.79E-6,0
